[{"OBJECT_NAME":"STARLINK-36568","OBJECT_ID":"2026-040C","EPOCH":"2026-03-15T06:00:00.999648","MEAN_MOTION":15.92192272,"ECCENTRICITY":0.00013811,"INCLINATION":97.2712,"RA_OF_ASC_NODE":22.8994,"ARG_OF_PERICENTER":84.7718,"MEAN_ANOMALY":351.7336,"EPHEMERIS_TYPE":0,"CLASSIFICATION_TYPE":"U","NORAD_CAT_ID":68017,"ELEMENT_SET_NO":999,"REV_AT_EPOCH":331,"BSTAR":-0.0044812043,"MEAN_MOTION_DOT":-0.01480532,"MEAN_MOTION_DDOT":0.00062385024},{"OBJECT_NAME":"STARLINK-36930","OBJECT_ID":"2026-040D","EPOCH":"2026-03-15T06:00:00.999648","MEAN_MOTION":15.92118,"ECCENTRICITY":0.00011906,"INCLINATION":97.2708,"RA_OF_ASC_NODE":22.8959,"ARG_OF_PERICENTER":99.4398,"MEAN_ANOMALY":328.7371,"EPHEMERIS_TYPE":0,"CLASSIFICATION_TYPE":"U","NORAD_CAT_ID":68018,"ELEMENT_SET_NO":999,"REV_AT_EPOCH":331,"BSTAR":-0.0044589272,"MEAN_MOTION_DOT":-0.01467659,"MEAN_MOTION_DDOT":0.00061338547},{"OBJECT_NAME":"STARLINK-36921","OBJECT_ID":"2026-040E","EPOCH":"2026-03-15T06:00:00.999648","MEAN_MOTION":15.92296919,"ECCENTRICITY":0.00012751,"INCLINATION":97.2721,"RA_OF_ASC_NODE":22.9037,"ARG_OF_PERICENTER":105.1703,"MEAN_ANOMALY":338.9459,"EPHEMERIS_TYPE":0,"CLASSIFICATION_TYPE":"U","NORAD_CAT_ID":68019,"ELEMENT_SET_NO":999,"REV_AT_EPOCH":331,"BSTAR":-0.0044657661,"MEAN_MOTION_DOT":-0.01483349,"MEAN_MOTION_DDOT":0.00062670293},{"OBJECT_NAME":"STARLINK-36928","OBJECT_ID":"2026-040F","EPOCH":"2026-03-15T06:00:00.999648","MEAN_MOTION":15.92258533,"ECCENTRICITY":0.00012706,"INCLINATION":97.2712,"RA_OF_ASC_NODE":22.9008,"ARG_OF_PERICENTER":99.2739,"MEAN_ANOMALY":340.7003,"EPHEMERIS_TYPE":0,"CLASSIFICATION_TYPE":"U","NORAD_CAT_ID":68020,"ELEMENT_SET_NO":999,"REV_AT_EPOCH":331,"BSTAR":-0.0044507809,"MEAN_MOTION_DOT":-0.01475536,"MEAN_MOTION_DDOT":0.00062036674},{"OBJECT_NAME":"STARLINK-36858","OBJECT_ID":"2026-040G","EPOCH":"2026-03-15T01:59:11.872320","MEAN_MOTION":16.06880902,"ECCENTRICITY":3.407e-5,"INCLINATION":97.2747,"RA_OF_ASC_NODE":22.7903,"ARG_OF_PERICENTER":89.7437,"MEAN_ANOMALY":270.3884,"EPHEMERIS_TYPE":0,"CLASSIFICATION_TYPE":"U","NORAD_CAT_ID":68021,"ELEMENT_SET_NO":999,"REV_AT_EPOCH":220,"BSTAR":-0.00026016823,"MEAN_MOTION_DOT":-0.00198969,"MEAN_MOTION_DDOT":1.8306812e-5},{"OBJECT_NAME":"STARLINK-36916","OBJECT_ID":"2026-040H","EPOCH":"2026-03-15T06:00:00.999648","MEAN_MOTION":15.92380935,"ECCENTRICITY":0.00012979,"INCLINATION":97.2715,"RA_OF_ASC_NODE":22.9066,"ARG_OF_PERICENTER":107.3728,"MEAN_ANOMALY":344.9738,"EPHEMERIS_TYPE":0,"CLASSIFICATION_TYPE":"U","NORAD_CAT_ID":68022,"ELEMENT_SET_NO":999,"REV_AT_EPOCH":331,"BSTAR":-0.0044881293,"MEAN_MOTION_DOT":-0.01497097,"MEAN_MOTION_DDOT":0.00063803885},{"OBJECT_NAME":"STARLINK-36871","OBJECT_ID":"2026-040J","EPOCH":"2026-03-15T06:00:00.999648","MEAN_MOTION":15.92420664,"ECCENTRICITY":0.00013473,"INCLINATION":97.2714,"RA_OF_ASC_NODE":22.9073,"ARG_OF_PERICENTER":97.1571,"MEAN_ANOMALY":359.3393,"EPHEMERIS_TYPE":0,"CLASSIFICATION_TYPE":"U","NORAD_CAT_ID":68023,"ELEMENT_SET_NO":999,"REV_AT_EPOCH":331,"BSTAR":-0.0044797742,"MEAN_MOTION_DOT":-0.01497382,"MEAN_MOTION_DDOT":0.00063852059},{"OBJECT_NAME":"STARLINK-36891","OBJECT_ID":"2026-040K","EPOCH":"2026-03-15T06:00:00.999648","MEAN_MOTION":15.92435552,"ECCENTRICITY":0.00013205,"INCLINATION":97.2715,"RA_OF_ASC_NODE":22.9097,"ARG_OF_PERICENTER":98.794,"MEAN_ANOMALY":2.5242,"EPHEMERIS_TYPE":0,"CLASSIFICATION_TYPE":"U","NORAD_CAT_ID":68024,"ELEMENT_SET_NO":999,"REV_AT_EPOCH":331,"BSTAR":-0.0045254616,"MEAN_MOTION_DOT":-0.0151363,"MEAN_MOTION_DDOT":0.00065150928},{"OBJECT_NAME":"STARLINK-36378","OBJECT_ID":"2026-040L","EPOCH":"2026-03-15T06:00:00.999648","MEAN_MOTION":15.92499105,"ECCENTRICITY":0.00012839,"INCLINATION":97.2736,"RA_OF_ASC_NODE":22.9147,"ARG_OF_PERICENTER":105.2084,"MEAN_ANOMALY":4.8945,"EPHEMERIS_TYPE":0,"CLASSIFICATION_TYPE":"U","NORAD_CAT_ID":68025,"ELEMENT_SET_NO":999,"REV_AT_EPOCH":327,"BSTAR":-0.004541192,"MEAN_MOTION_DOT":-0.01523762,"MEAN_MOTION_DDOT":0.00066003273},{"OBJECT_NAME":"STARLINK-36884","OBJECT_ID":"2026-040M","EPOCH":"2026-03-15T06:00:00.999648","MEAN_MOTION":15.92462505,"ECCENTRICITY":0.00012965,"INCLINATION":97.2726,"RA_OF_ASC_NODE":22.9123,"ARG_OF_PERICENTER":96.9934,"MEAN_ANOMALY":8.8118,"EPHEMERIS_TYPE":0,"CLASSIFICATION_TYPE":"U","NORAD_CAT_ID":68026,"ELEMENT_SET_NO":999,"REV_AT_EPOCH":331,"BSTAR":-0.0045424427,"MEAN_MOTION_DOT":-0.01521335,"MEAN_MOTION_DDOT":0.00065784505},{"OBJECT_NAME":"STARLINK-36940","OBJECT_ID":"2026-040N","EPOCH":"2026-03-15T06:00:00.999648","MEAN_MOTION":15.92105372,"ECCENTRICITY":0.00015645,"INCLINATION":97.2797,"RA_OF_ASC_NODE":22.9452,"ARG_OF_PERICENTER":104.8105,"MEAN_ANOMALY":74.9741,"EPHEMERIS_TYPE":0,"CLASSIFICATION_TYPE":"U","NORAD_CAT_ID":68027,"ELEMENT_SET_NO":999,"REV_AT_EPOCH":341,"BSTAR":-0.0058192013,"MEAN_MOTION_DOT":-0.01908432,"MEAN_MOTION_DDOT":0.00099942953},{"OBJECT_NAME":"STARLINK-36944","OBJECT_ID":"2026-040Q","EPOCH":"2026-03-15T06:00:00.999648","MEAN_MOTION":15.9254464,"ECCENTRICITY":0.00013209,"INCLINATION":97.2725,"RA_OF_ASC_NODE":22.9148,"ARG_OF_PERICENTER":101.6746,"MEAN_ANOMALY":12.4464,"EPHEMERIS_TYPE":0,"CLASSIFICATION_TYPE":"U","NORAD_CAT_ID":68029,"ELEMENT_SET_NO":999,"REV_AT_EPOCH":331,"BSTAR":-0.0045313617,"MEAN_MOTION_DOT":-0.01524046,"MEAN_MOTION_DDOT":0.0006605639},{"OBJECT_NAME":"STARLINK-36942","OBJECT_ID":"2026-040R","EPOCH":"2026-03-15T06:00:00.999648","MEAN_MOTION":15.92583531,"ECCENTRICITY":0.00013353,"INCLINATION":97.2742,"RA_OF_ASC_NODE":22.918,"ARG_OF_PERICENTER":100.0194,"MEAN_ANOMALY":18.4779,"EPHEMERIS_TYPE":0,"CLASSIFICATION_TYPE":"U","NORAD_CAT_ID":68030,"ELEMENT_SET_NO":999,"REV_AT_EPOCH":331,"BSTAR":-0.0045560884,"MEAN_MOTION_DOT":-0.01535322,"MEAN_MOTION_DDOT":0.00066991126},{"OBJECT_NAME":"STARLINK-36913","OBJECT_ID":"2026-040S","EPOCH":"2026-03-15T06:00:00.999648","MEAN_MOTION":15.9262022,"ECCENTRICITY":0.00013361,"INCLINATION":97.2746,"RA_OF_ASC_NODE":22.9202,"ARG_OF_PERICENTER":109.4669,"MEAN_ANOMALY":13.389,"EPHEMERIS_TYPE":0,"CLASSIFICATION_TYPE":"U","NORAD_CAT_ID":68031,"ELEMENT_SET_NO":999,"REV_AT_EPOCH":331,"BSTAR":-0.0045515645,"MEAN_MOTION_DOT":-0.01536693,"MEAN_MOTION_DDOT":0.0006712665},{"OBJECT_NAME":"STARLINK-36935","OBJECT_ID":"2026-040T","EPOCH":"2026-03-15T06:00:00.999648","MEAN_MOTION":15.9293839,"ECCENTRICITY":0.0001375,"INCLINATION":97.2772,"RA_OF_ASC_NODE":22.9333,"ARG_OF_PERICENTER":104.9705,"MEAN_ANOMALY":48.1615,"EPHEMERIS_TYPE":0,"CLASSIFICATION_TYPE":"U","NORAD_CAT_ID":68032,"ELEMENT_SET_NO":999,"REV_AT_EPOCH":341,"BSTAR":-0.004595691,"MEAN_MOTION_DOT":-0.01576917,"MEAN_MOTION_DDOT":0.00070647445},{"OBJECT_NAME":"STARLINK-36947","OBJECT_ID":"2026-040U","EPOCH":"2026-03-15T06:00:00.999648","MEAN_MOTION":15.92677797,"ECCENTRICITY":0.00012974,"INCLINATION":97.2749,"RA_OF_ASC_NODE":22.9215,"ARG_OF_PERICENTER":106.5044,"MEAN_ANOMALY":20.1847,"EPHEMERIS_TYPE":0,"CLASSIFICATION_TYPE":"U","NORAD_CAT_ID":68033,"ELEMENT_SET_NO":999,"REV_AT_EPOCH":331,"BSTAR":-0.0045454897,"MEAN_MOTION_DOT":-0.01539183,"MEAN_MOTION_DDOT":0.00067367592}]
